ONEWEB-0220             
1 48232U 21031Y   23311.48211892  .00000088  00000+0  20336-3 0  9993
2 48232  87.8941 119.3609 0001634 105.1388 254.9923 13.14361798123246
ONEWEB-0165             
1 48233U 21031Z   23311.96780481 -.00000109  00000+0 -32708-3 0  9994
2 48233  87.8934 119.2745 0001493  99.4644 260.6654 13.14550679123267
ONEWEB-0199             
1 48234U 21031AA  23311.72316047 -.00000199  00000+0 -57164-3 0  9994
2 48234  87.8935 119.2948 0001513  97.9818 262.1484 13.14358468123139
ONEWEB-0203             
1 48235U 21031AB  23312.47460561 -.00000211  00000+0 -60798-3 0  9991
2 48235  87.8939 119.1449 0001334  79.2468 280.8812 13.14155596123245
ONEWEB-0197             
1 48236U 21031AC  23312.15565813 -.00005043  00000+0 -13637-1 0  9999
2 48236  87.8937 119.2163 0001699  93.0088 267.1236 13.14542141123114
ONEWEB-0194             
1 48237U 21031AD  23312.50521384 -.00000137  00000+0 -40325-3 0  9999
2 48237  87.8937 119.1364 0001422  78.3102 281.8187 13.14454976123334
ONEWEB-0193             
1 48238U 21031AE  23311.53194820  .00000239  00000+0  60945-3 0  9994
2 48238  87.8933 119.3391 0001352  92.2399 267.8886 13.14647873123158
ONEWEB-0191             
1 48239U 21031AF  23311.77118614  .00000521  00000+0  13699-2 0  9995
2 48239  87.8943 119.2756 0001720  92.2656 267.8670 13.14553394123042
